CCSDS_OMM_VERS = 2.0
CREATION_DATE  = 
ORIGINATOR     = 

OBJECT_NAME    = CZ-2C R/B
OBJECT_ID      = 2022-132E
CENTER_NAME    = EARTH
REF_FRAME      = TEME
TIME_SYSTEM    = UTC
MEAN_ELEMENT_THEORY = SGP/SGP4

EPOCH          = 2025-12-14T00:32:15.269280
MEAN_MOTION    = 15.54919698
ECCENTRICITY   = .00229304
INCLINATION    = 97.2944
RA_OF_ASC_NODE = 344.2453
ARG_OF_PERICENTER = 53.1489
MEAN_ANOMALY   = 307.1863

EPHEMERIS_TYPE = 0
CLASSIFICATION_TYPE = U
NORAD_CAT_ID   = 54039
ELEMENT_SET_NO = 999
REV_AT_EPOCH   = 17703
BSTAR          = .5151459E-3
MEAN_MOTION_DOT = .34829E-3
MEAN_MOTION_DDOT = 0

CCSDS_OMM_VERS = 2.0
CREATION_DATE  = 
ORIGINATOR     = 

OBJECT_NAME    = GSLV R/B
OBJECT_ID      = 2022-138AN
CENTER_NAME    = EARTH
REF_FRAME      = TEME
TIME_SYSTEM    = UTC
MEAN_ELEMENT_THEORY = SGP/SGP4

EPOCH          = 2025-12-14T03:02:15.601344
MEAN_MOTION    = 14.96141917
ECCENTRICITY   = .00241537
INCLINATION    = 87.3830
RA_OF_ASC_NODE = 195.0098
ARG_OF_PERICENTER = 100.9274
MEAN_ANOMALY   = 259.4677

EPHEMERIS_TYPE = 0
CLASSIFICATION_TYPE = U
NORAD_CAT_ID   = 54149
ELEMENT_SET_NO = 999
REV_AT_EPOCH   = 17113
BSTAR          = .33497991E-3
MEAN_MOTION_DOT = .3819E-4
MEAN_MOTION_DDOT = 0

CCSDS_OMM_VERS = 2.0
CREATION_DATE  = 
ORIGINATOR     = 

OBJECT_NAME    = XRISM
OBJECT_ID      = 2023-137A
CENTER_NAME    = EARTH
REF_FRAME      = TEME
TIME_SYSTEM    = UTC
MEAN_ELEMENT_THEORY = SGP/SGP4

EPOCH          = 2025-12-13T16:38:26.120832
MEAN_MOTION    = 15.10352051
ECCENTRICITY   = .00076936
INCLINATION    = 31.0010
RA_OF_ASC_NODE = 119.3858
ARG_OF_PERICENTER = 255.1038
MEAN_ANOMALY   = 104.8748

EPHEMERIS_TYPE = 0
CLASSIFICATION_TYPE = U
NORAD_CAT_ID   = 57800
ELEMENT_SET_NO = 999
REV_AT_EPOCH   = 12477
BSTAR          = .33152984E-3
MEAN_MOTION_DOT = .5673E-4
MEAN_MOTION_DDOT = 0

CCSDS_OMM_VERS = 2.0
CREATION_DATE  = 
ORIGINATOR     = 

OBJECT_NAME    = ACS3
OBJECT_ID      = 2024-077B
CENTER_NAME    = EARTH
REF_FRAME      = TEME
TIME_SYSTEM    = UTC
MEAN_ELEMENT_THEORY = SGP/SGP4

EPOCH          = 2025-12-14T03:01:31.337760
MEAN_MOTION    = 13.85590832
ECCENTRICITY   = .00772276
INCLINATION    = 97.2660
RA_OF_ASC_NODE = 303.4228
ARG_OF_PERICENTER = 335.0417
MEAN_ANOMALY   = 24.7018

EPHEMERIS_TYPE = 0
CLASSIFICATION_TYPE = U
NORAD_CAT_ID   = 59588
ELEMENT_SET_NO = 999
REV_AT_EPOCH   = 8233
BSTAR          = .28905416E-1
MEAN_MOTION_DOT = .33906E-3
MEAN_MOTION_DDOT = 0

CCSDS_OMM_VERS = 2.0
CREATION_DATE  = 
ORIGINATOR     = 

OBJECT_NAME    = SZ-21 MODULE
OBJECT_ID      = 2025-246C
CENTER_NAME    = EARTH
REF_FRAME      = TEME
TIME_SYSTEM    = UTC
MEAN_ELEMENT_THEORY = SGP/SGP4

EPOCH          = 2025-12-14T06:21:31.494240
MEAN_MOTION    = 15.62581213
ECCENTRICITY   = .00062526
INCLINATION    = 41.4775
RA_OF_ASC_NODE = 6.7415
ARG_OF_PERICENTER = 268.4580
MEAN_ANOMALY   = 91.5544

EPHEMERIS_TYPE = 0
CLASSIFICATION_TYPE = U
NORAD_CAT_ID   = 66515
ELEMENT_SET_NO = 999
REV_AT_EPOCH   = 468
BSTAR          = .32565972E-3
MEAN_MOTION_DOT = .2972E-3
MEAN_MOTION_DDOT = 0

