CZ-2C R/B               
1 54039U 22132E   25348.02239895  .00034829  00000+0  51515-3 0  9996
2 54039  97.2944 344.2453 0022930  53.1489 307.1863 15.54919698177032
GSLV R/B                
1 54149U 22138AN  25348.12656946  .00003819  00000+0  33498-3 0  9990
2 54149  87.3830 195.0098 0024153 100.9274 259.4677 14.96141917171130
XRISM                   
1 57800U 23137A   25347.69335788  .00005673  00000+0  33153-3 0  9994
2 57800  31.0010 119.3858 0007693 255.1038 104.8748 15.10352051124777
ACS3                    
1 59588U 24077B   25348.12605715  .00033906  00000+0  28905-1 0  9999
2 59588  97.2660 303.4228 0077227 335.0417  24.7018 13.85590832 82339
SZ-21 MODULE            
1 66515U 25246C   25348.26494785  .00029720  00000+0  32566-3 0  9993
2 66515  41.4775   6.7415 0006252 268.4580  91.5544 15.62581213  4684
